start=new Date('2021-09-19T00:00:00.000Z').valueOf();
sats=[{"APOAPSIS":"548.750","MEAN_MOTION":"15.06392722","GP_ID":"184945882","CENTER_NAME":"EARTH","MEAN_MOTION_DOT":"0.00001013","SEMIMAJOR_AXIS":"6925.371","REV_AT_EPOCH":"5844","DECAY_DATE":null,"CLASSIFICATION_TYPE":"U","TLE_LINE2":"2 46351  53.0532 127.9955 0002186  77.0469 283.0764 15.06392722 58445","EPHEMERIS_TYPE":"0","PERIOD":"95.593","TIME_SYSTEM":"UTC","RA_OF_ASC_NODE":"127.9955","TLE_LINE1":"1 46351U 20062AC  21261.56754253  .00001013  00000-0  86923-4 0  9995","MEAN_ELEMENT_THEORY":"SGP4","MEAN_ANOMALY":"283.0764","INCLINATION":"53.0532","COUNTRY_CODE":"US","LAUNCH_DATE":"2020-09-03","RCS_SIZE":"LARGE","REF_FRAME":"TEME","OBJECT_NAME":"STARLINK-1646","ECCENTRICITY":"0.00021860","ELEMENT_SET_NO":"999","ARG_OF_PERICENTER":"77.0469","MEAN_MOTION_DDOT":"0.0000000000000","BSTAR":"0.00008692300000","OBJECT_ID":"2020-062AC","SITE":"AFETR","EPOCH":"2021-09-18T13:37:15.674592","PERIAPSIS":"545.722","NORAD_CAT_ID":"46351","FILE":"3118594","OBJECT_TYPE":"PAYLOAD"},{"EPOCH":"2021-09-18T08:24:05.800896","SITE":"AFETR","PERIAPSIS":"545.770","OBJECT_ID":"2020-062AD","OBJECT_TYPE":"PAYLOAD","NORAD_CAT_ID":"46352","FILE":"3118594","ECCENTRICITY":"0.00021200","OBJECT_NAME":"STARLINK-1653","MEAN_MOTION_DDOT":"0.0000000000000","BSTAR":"-0.00003553500000","ARG_OF_PERICENTER":"71.4366","ELEMENT_SET_NO":"999","COUNTRY_CODE":"US","LAUNCH_DATE":"2020-09-03","RCS_SIZE":"LARGE","REF_FRAME":"TEME","INCLINATION":"53.0539","TLE_LINE1":"1 46352U 20062AD  21261.35006714 -.00000811  00000-0 -35535-4 0  9995","MEAN_ELEMENT_THEORY":"SGP4","MEAN_ANOMALY":"288.6853","RA_OF_ASC_NODE":"128.9634","PERIOD":"95.593","TIME_SYSTEM":"UTC","DECAY_DATE":null,"CLASSIFICATION_TYPE":"U","TLE_LINE2":"2 46352  53.0539 128.9634 0002120  71.4366 288.6853 15.06392108 58415","EPHEMERIS_TYPE":"0","GP_ID":"184946132","CENTER_NAME":"EARTH","APOAPSIS":"548.706","MEAN_MOTION":"15.06392108","REV_AT_EPOCH":"5841","SEMIMAJOR_AXIS":"6925.373","MEAN_MOTION_DOT":"-0.00000811"},{"NORAD_CAT_ID":"46353","FILE":"3118594","OBJECT_TYPE":"PAYLOAD","OBJECT_ID":"2020-062AE","EPOCH":"2021-09-18T09:56:58.880832","SITE":"AFETR","PERIAPSIS":"545.694","ELEMENT_SET_NO":"999","BSTAR":"0.00010067000000","MEAN_MOTION_DDOT":"0.0000000000000","ARG_OF_PERICENTER":"70.5813","OBJECT_NAME":"STARLINK-1656","ECCENTRICITY":"0.00022170","RCS_SIZE":"LARGE","REF_FRAME":"TEME","COUNTRY_CODE":"US","LAUNCH_DATE":"2020-09-03","INCLINATION":"53.0544","MEAN_ELEMENT_THEORY":"SGP4","MEAN_ANOMALY":"289.5415","TLE_LINE1":"1 46353U 20062AE  21261.41457038  .00001218  00000-0  10067-3 0  9994","PERIOD":"95.592","TIME_SYSTEM":"UTC","RA_OF_ASC_NODE":"148.6787","TLE_LINE2":"2 46353  53.0544 148.6787 0002217  70.5813 289.5415 15.06394822 58132","EPHEMERIS_TYPE":"0","CLASSIFICATION_TYPE":"U","DECAY_DATE":null,"MEAN_MOTION_DOT":"0.00001218","SEMIMAJOR_AXIS":"6925.364","REV_AT_EPOCH":"5813","APOAPSIS":"548.765","MEAN_MOTION":"15.06394822","GP_ID":"184947383","CENTER_NAME":"EARTH"},{"INCLINATION":"53.0537","REF_FRAME":"TEME","RCS_SIZE":"LARGE","COUNTRY_CODE":"US","LAUNCH_DATE":"2020-09-03","BSTAR":"-0.00001595100000","MEAN_MOTION_DDOT":"0.0000000000000","ARG_OF_PERICENTER":"74.9958","ELEMENT_SET_NO":"999","ECCENTRICITY":"0.00020680","OBJECT_NAME":"STARLINK-1657","OBJECT_TYPE":"PAYLOAD","FILE":"3118594","NORAD_CAT_ID":"46354","EPOCH":"2021-09-18T09:41:04.001856","SITE":"AFETR","PERIAPSIS":"545.800","OBJECT_ID":"2020-062AF","SEMIMAJOR_AXIS":"6925.367","REV_AT_EPOCH":"5813","MEAN_MOTION_DOT":"-0.00000519","CENTER_NAME":"EARTH","GP_ID":"184946357","APOAPSIS":"548.665","MEAN_MOTION":"15.06393862","TLE_LINE2":"2 46354  53.0537 148.7246 0002068  74.9958 285.1260 15.06393862 58131","EPHEMERIS_TYPE":"0","CLASSIFICATION_TYPE":"U","DECAY_DATE":null,"RA_OF_ASC_NODE":"148.7246","PERIOD":"95.593","TIME_SYSTEM":"UTC","MEAN_ELEMENT_THEORY":"SGP4","MEAN_ANOMALY":"285.1260","TLE_LINE1":"1 46354U 20062AF  21261.40351854 -.00000519  00000-0 -15951-4 0  9996"},{"TLE_LINE1":"1 46355U 20062AG  21261.64309402  .00001021  00000-0  87433-4 0  9996","MEAN_ELEMENT_THEORY":"SGP4","MEAN_ANOMALY":"286.1898","PERIOD":"95.593","TIME_SYSTEM":"UTC","RA_OF_ASC_NODE":"147.6507","DECAY_DATE":null,"CLASSIFICATION_TYPE":"U","EPHEMERIS_TYPE":"0","TLE_LINE2":"2 46355  53.0540 147.6507 0001865  73.9296 286.1898 15.06393601 58175","APOAPSIS":"548.525","MEAN_MOTION":"15.06393601","GP_ID":"184974492","CENTER_NAME":"EARTH","MEAN_MOTION_DOT":"0.00001021","SEMIMAJOR_AXIS":"6925.368","REV_AT_EPOCH":"5817","OBJECT_ID":"2020-062AG","EPOCH":"2021-09-18T15:26:03.323328","SITE":"AFETR","PERIAPSIS":"545.942","NORAD_CAT_ID":"46355","FILE":"3118781","OBJECT_TYPE":"PAYLOAD","OBJECT_NAME":"STARLINK-1661","ECCENTRICITY":"0.00018650","ELEMENT_SET_NO":"999","ARG_OF_PERICENTER":"73.9296","MEAN_MOTION_DDOT":"0.0000000000000","BSTAR":"0.00008743300000","COUNTRY_CODE":"US","LAUNCH_DATE":"2020-09-03","REF_FRAME":"TEME","RCS_SIZE":"LARGE","INCLINATION":"53.0540"},{"TLE_LINE1":"1 46356U 20062AH  21261.38877395 -.00000851  00000-0 -38232-4 0  9994","MEAN_ANOMALY":"292.7110","MEAN_ELEMENT_THEORY":"SGP4","TIME_SYSTEM":"UTC","PERIOD":"95.593","RA_OF_ASC_NODE":"148.8045","CLASSIFICATION_TYPE":"U","DECAY_DATE":null,"TLE_LINE2":"2 46356  53.0551 148.8045 0002164  67.4108 292.7110 15.06389972 58133","EPHEMERIS_TYPE":"0","MEAN_MOTION":"15.06389972","APOAPSIS":"548.743","GP_ID":"184946632","CENTER_NAME":"EARTH","MEAN_MOTION_DOT":"-0.00000851","SEMIMAJOR_AXIS":"6925.379","REV_AT_EPOCH":"5813","OBJECT_ID":"2020-062AH","PERIAPSIS":"545.746","SITE":"AFETR","EPOCH":"2021-09-18T09:19:50.069280","FILE":"3118594","NORAD_CAT_ID":"46356","OBJECT_TYPE":"PAYLOAD","OBJECT_NAME":"STARLINK-1665","ECCENTRICITY":"0.00021640","ELEMENT_SET_NO":"999","ARG_OF_PERICENTER":"67.4108","MEAN_MOTION_DDOT":"0.0000000000000","BSTAR":"-0.00003823200000","LAUNCH_DATE":"2020-09-03","COUNTRY_CODE":"US","RCS_SIZE":"LARGE","REF_FRAME":"TEME","INCLINATION":"53.0551"},{"TLE_LINE1":"1 46357U 20062AJ  21261.58597180 -.00001167  00000-0 -59447-4 0  9990","MEAN_ELEMENT_THEORY":"SGP4","MEAN_ANOMALY":"282.6098","RA_OF_ASC_NODE":"127.9149","PERIOD":"95.593","TIME_SYSTEM":"UTC","DECAY_DATE":null,"CLASSIFICATION_TYPE":"U","EPHEMERIS_TYPE":"0","TLE_LINE2":"2 46357  53.0545 127.9149 0002146  77.5131 282.6098 15.06392232 58448","GP_ID":"184973490","CENTER_NAME":"EARTH","APOAPSIS":"548.724","MEAN_MOTION":"15.06392232","SEMIMAJOR_AXIS":"6925.372","REV_AT_EPOCH":"5844","MEAN_MOTION_DOT":"-0.00001167","SITE":"AFETR","EPOCH":"2021-09-18T14:03:47.963520","PERIAPSIS":"545.751","OBJECT_ID":"2020-062AJ","OBJECT_TYPE":"PAYLOAD","NORAD_CAT_ID":"46357","FILE":"3118781","ECCENTRICITY":"0.00021460","OBJECT_NAME":"STARLINK-1666","MEAN_MOTION_DDOT":"0.0000000000000","BSTAR":"-0.00005944700000","ARG_OF_PERICENTER":"77.5131","ELEMENT_SET_NO":"999","COUNTRY_CODE":"US","LAUNCH_DATE":"2020-09-03","REF_FRAME":"TEME","RCS_SIZE":"LARGE","INCLINATION":"53.0545"},{"PERIOD":"95.592","TIME_SYSTEM":"UTC","RA_OF_ASC_NODE":"150.0895","MEAN_ELEMENT_THEORY":"SGP4","MEAN_ANOMALY":"289.6542","TLE_LINE1":"1 46358U 20062AK  21261.10126632  .00001503  00000-0  11982-3 0  9992","MEAN_MOTION_DOT":"0.00001503","SEMIMAJOR_AXIS":"6925.361","REV_AT_EPOCH":"5809","APOAPSIS":"548.642","MEAN_MOTION":"15.06395778","GP_ID":"184945858","CENTER_NAME":"EARTH","TLE_LINE2":"2 46358  53.0531 150.0895 0002044  70.4668 289.6542 15.06395778 58093","EPHEMERIS_TYPE":"0","DECAY_DATE":null,"CLASSIFICATION_TYPE":"U","ELEMENT_SET_NO":"999","MEAN_MOTION_DDOT":"0.0000000000000","BSTAR":"0.00011982000000","ARG_OF_PERICENTER":"70.4668","OBJECT_NAME":"STARLINK-1690","ECCENTRICITY":"0.00020440","FILE":"3118594","NORAD_CAT_ID":"46358","OBJECT_TYPE":"PAYLOAD","OBJECT_ID":"2020-062AK","EPOCH":"2021-09-18T02:25:49.410048","SITE":"AFETR","PERIAPSIS":"545.811","INCLINATION":"53.0531","REF_FRAME":"TEME","RCS_SIZE":"LARGE","COUNTRY_CODE":"US","LAUNCH_DATE":"2020-09-03"},{"PERIAPSIS":"545.891","EPOCH":"2021-09-18T16:17:09.478752","SITE":"AFETR","OBJECT_ID":"2020-062AL","OBJECT_TYPE":"PAYLOAD","FILE":"3118781","NORAD_CAT_ID":"46359","ECCENTRICITY":"0.00019510","OBJECT_NAME":"STARLINK-1707","ARG_OF_PERICENTER":"90.1784","MEAN_MOTION_DDOT":"0.0000000000000","BSTAR":"0.00006885400000","ELEMENT_SET_NO":"999","LAUNCH_DATE":"2020-09-03","COUNTRY_CODE":"US","RCS_SIZE":"LARGE","REF_FRAME":"TEME","INCLINATION":"53.0543","TLE_LINE1":"1 46359U 20062AL  21261.67858193  .00000744  00000-0  68854-4 0  9996","MEAN_ANOMALY":"269.9429","MEAN_ELEMENT_THEORY":"SGP4","RA_OF_ASC_NODE":"102.4958","TIME_SYSTEM":"UTC","PERIOD":"95.593","DECAY_DATE":null,"CLASSIFICATION_TYPE":"U","TLE_LINE2":"2 46359  53.0543 102.4958 0001951  90.1784 269.9429 15.06390540 58808","EPHEMERIS_TYPE":"0","CENTER_NAME":"EARTH","GP_ID":"184973992","MEAN_MOTION":"15.06390540","APOAPSIS":"548.594","REV_AT_EPOCH":"5880","SEMIMAJOR_AXIS":"6925.378","MEAN_MOTION_DOT":"0.00000744"},{"EPHEMERIS_TYPE":"0","TLE_LINE2":"2 46360  53.0540 102.4020 0001996  86.0807 274.0410 15.06387728 58818","CLASSIFICATION_TYPE":"U","DECAY_DATE":null,"SEMIMAJOR_AXIS":"6925.386","REV_AT_EPOCH":"5881","MEAN_MOTION_DOT":"0.00000707","GP_ID":"184974743","CENTER_NAME":"EARTH","MEAN_MOTION":"15.06387728","APOAPSIS":"548.633","MEAN_ANOMALY":"274.0410","MEAN_ELEMENT_THEORY":"SGP4","TLE_LINE1":"1 46360U 20062AM  21261.70070567  .00000707  00000-0  66401-4 0  9998","RA_OF_ASC_NODE":"102.4020","TIME_SYSTEM":"UTC","PERIOD":"95.593","RCS_SIZE":"LARGE","REF_FRAME":"TEME","LAUNCH_DATE":"2020-09-03","COUNTRY_CODE":"US","INCLINATION":"53.0540","OBJECT_TYPE":"PAYLOAD","NORAD_CAT_ID":"46360","FILE":"3118781","PERIAPSIS":"545.869","EPOCH":"2021-09-18T16:49:00.969888","SITE":"AFETR","OBJECT_ID":"2020-062AM","BSTAR":"0.00006640100000","MEAN_MOTION_DDOT":"0.0000000000000","ARG_OF_PERICENTER":"86.0807","ELEMENT_SET_NO":"999","ECCENTRICITY":"0.00019960","OBJECT_NAME":"STARLINK-1713"}];
